ONEWEB-0588             
1 55153U 23004P   25189.84242242  .00000075  00000+0  15671-3 0  9995
2 55153  87.9114  43.7187 0001675  70.0814 290.0498 13.18684491124442
ONEWEB-0598             
1 55154U 23004Q   25190.28255644 -.00000502  00000+0 -14510-2 0  9993
2 55154  87.8831  89.4348 0002455  68.6030 291.5360 13.11417421120961
ONEWEB-0599             
1 55155U 23004R   25190.17309556 -.00000200  00000+0 -54845-3 0  9995
2 55155  87.9056  74.1544 0002065  79.7956 280.3409 13.17649246122317
ONEWEB-0614             
1 55156U 23004S   25190.43006592 -.00000337  00000+0 -98657-3 0  9999
2 55156  87.8832  89.4146 0001528  74.3695 285.7601 13.11416511120930
ONEWEB-0616             
1 55157U 23004T   25190.36715494  .00000003  00000+0 -25124-4 0  9999
2 55157  87.9057  74.1065 0002652  96.8879 263.2554 13.17648248122552
ONEWEB-0617             
1 55158U 23004U   25190.41820017  .00000166  00000+0  43244-3 0  9995
2 55158  87.8826  89.3969 0001655  67.9488 292.1815 13.11416166120942
ONEWEB-0618             
1 55159U 23004V   25189.85674662  .00000888  00000+0  15231-3 0  9991
2 55159  86.9096 314.6970 0016830 107.5011 252.8045 14.67519497130742
ONEWEB-0619             
1 55160U 23004W   25190.17140916  .00000025  00000+0  31842-4 0  9990
2 55160  87.9052  74.1228 0001552  93.5688 266.5621 13.17649066122428
